STARLINK-3874           
1 52365U 22045AL  26195.57638764 -.00000493  00000+0 -12894-4 0  9998
2 52365  53.1617 339.2466 0001114  80.4978 279.6140 15.08830624235075
STARLINK-3808           
1 52366U 22045AM  26195.62422487 -.00000311  00000+0 -14495-5 0  9997
2 52366  53.1612 339.0330 0001135 100.0920 260.0199 15.08829934235089
STARLINK-3817           
1 52367U 22045AN  26195.63158389 -.00000100  00000+0  11802-4 0  9999
2 52367  53.1613 339.0000 0001174  90.3701 269.7425 15.08830667235089
STARLINK-3834           
1 52368U 22045AP  26195.61317567  .00000943  00000+0  77352-4 0  9999
2 52368  53.1617 339.0834 0001168  59.4075 300.7032 15.08842563235079
STARLINK-3841           
1 52369U 22045AQ  26195.62790332 -.00000223  00000+0  40659-5 0  9999
2 52369  53.1611 339.0169 0001155  97.2325 262.8798 15.08831515235082
STARLINK-3827           
1 52370U 22045AR  26195.62150020 -.00000027  00000+0  16379-4 0  9998
2 52370  53.1609 339.0580 0001332 111.7057 248.4077 15.08830795235088
STARLINK-3798           
1 52371U 22045AS  26195.58335648 -.00024588  00000+0 -84204-3 0  9995
2 52371  53.1589 337.8731 0001149  75.8348  74.1954 15.29375742  5744
STARLINK-3796           
1 52372U 22045AT  26195.58335648  .00040677  00000+0  12001-2 0  9996
2 52372  53.1604 337.5483 0000449  60.2193 297.4739 15.34620982  5849
STARLINK-3550           
1 52373U 22045AU  26195.61058414 -.00062479  00000+0 -18246-2 0  9997
2 52373  53.1624 335.0130 0000570  81.6628 278.4440 15.34891118235146
STARLINK-3762           
1 52374U 22045AV  26195.58335648  .00020720  00000+0  61100-3 0  9990
2 52374  53.1611 337.0410 0000681 116.8758 180.1708 15.34997652  5842
STARLINK-3785           
1 52375U 22045AW  26195.58335648  .00009494  00000+0  30762-3 0  9996
2 52375  53.1601 337.4898 0001285  20.2486  28.7313 15.32705009  5843
STARLINK-3805           
1 52377U 22045AY  26195.61688894 -.00000321  00000+0 -20802-5 0  9994
2 52377  53.1611 339.2882 0001185  96.2703 263.8423 15.08832525235074
STARLINK-3806           
1 52378U 22045AZ  26195.58742563 -.00000175  00000+0  71075-5 0  9999
2 52378  53.1618 339.2003 0001175  93.9175 266.1951 15.08833234235084
STARLINK-3800           
1 52379U 22045BA  26195.58335648  .00013038  00000+0  58756-3 0  9992
2 52379  53.1614 338.6792 0000034  84.8842 151.0971 15.21378365  5647
STARLINK-3793           
1 52380U 22045BB  26195.58335648  .00019518  00000+0  58584-3 0  9992
2 52380  53.1608 327.0387 0001024  75.0637  53.0134 15.34478539  5851
STARLINK-3799           
1 52382U 22045BD  26195.60364869  .00048750  00000+0  12550-2 0  9996
2 52382  53.2143 327.7414 0001612  64.0829 296.0342 15.38780628235258
STARLINK-3811           
1 52383U 22045BE  26195.58276296  .00000915  00000+0  39145-4 0  9992
2 52383  53.1609 326.9372 0000979  69.8672 290.2435 15.33549344235255
BRO-6                   
1 52422U 22047AE  26195.61255603  .00027151  00000+0  44343-3 0  9997
2 52422  97.3395 287.2317 0002823 313.6378  46.4640 15.52536424235404
JILIN-1 KUANFU 01C      
1 52443U 22048A   26195.60325366  .00001349  00000+0  87659-4 0  9993
2 52443  97.5251 272.2770 0017283 222.3265 137.6632 15.09598172231336
JILIN-1 GAOFEN 3D27     
1 52444U 22048B   26195.59677486  .00128735  00000+0  60136-3 0  9994
2 52444  97.5728 312.1769 0005177 245.2153 114.8577 15.82913815233802
JILIN-1 GAOFEN 3D28     
1 52445U 22048C   26195.59228485  .00168087  00000+0  61600-3 0  9997
2 52445  97.5664 312.4689 0004974 242.7262 117.3503 15.87892261233862
JILIN-1 GAOFEN 3D29     
1 52446U 22048D   26195.58177957  .00131480  00000+0  60803-3 0  9995
2 52446  97.5733 312.5259 0004455 228.7673 131.3212 15.83127242233823
JILIN-1 GAOFEN 3D31     
1 52448U 22048F   26195.61432820  .00249639  25947-4  69562-3 0  9993
2 52448  97.5697 313.9007 0005541 241.5921 118.4795 15.93689306233935
STARLINK-3909           
1 52452U 22049B   26195.37396891  .00000052  00000+0  21376-4 0  9993
2 52452  53.1591 220.0241 0000838  82.1282 277.9804 15.08829825231233
STARLINK-3872           
1 52453U 22049C   26195.48806485 -.00000814  00000+0 -33053-4 0  9994
2 52453  53.1583 219.6391 0001129  78.3594 281.7524 15.08835552231250
STARLINK-3888           
1 52454U 22049D   26195.55799449  .00000188  00000+0  29916-4 0  9999
2 52454  53.1589 219.3240 0000937  60.5852 299.5233 15.08825770231269
STARLINK-3890           
1 52455U 22049E   26195.35286026 -.00000091  00000+0  12396-4 0  9998
2 52455  53.1590 220.2470 0001096  78.4450 281.6664 15.08834308231231
STARLINK-3896           
1 52456U 22049F   26195.54789763  .00000118  00000+0  25499-4 0  9993
2 52456  53.1591 219.3701 0001096  74.4001 285.7111 15.08837286231260
STARLINK-3899           
1 52457U 22049G   26195.41078133  .00000118  00000+0  25524-4 0  9991
2 52457  53.1589 219.9768 0001130  77.1317 282.9801 15.08833521231247
STARLINK-3898           
1 52458U 22049H   26195.34181990  .00000082  00000+0  23234-4 0  9996
2 52458  53.1592 220.2958 0000840  80.6575 279.4512 15.08842493231237
