OBJECT_NAME,OBJECT_ID,EPOCH,MEAN_MOTION,ECCENTRICITY,INCLINATION,RA_OF_ASC_NODE,ARG_OF_PERICENTER,MEAN_ANOMALY,EPHEMERIS_TYPE,CLASSIFICATION_TYPE,NORAD_CAT_ID,ELEMENT_SET_NO,REV_AT_EPOCH,BSTAR,MEAN_MOTION_DOT,MEAN_MOTION_DDOT
STARLINK-3874,2022-045AL,2026-07-14T13:49:59.892096,15.08830624,.00011143,53.1617,339.2466,80.4978,279.6140,0,U,52365,999,23507,-.12894135E-4,-.493E-5,0
STARLINK-3808,2022-045AM,2026-07-14T14:58:53.028768,15.08829934,.00011355,53.1612,339.0330,100.0920,260.0199,0,U,52366,999,23508,-.1449532E-5,-.311E-5,0
STARLINK-3817,2022-045AN,2026-07-14T15:09:28.848096,15.08830667,.00011743,53.1613,339.0000,90.3701,269.7425,0,U,52367,999,23508,.11802419E-4,-.1E-5,0
STARLINK-3834,2022-045AP,2026-07-14T14:42:58.377888,15.08842563,.00011685,53.1617,339.0834,59.4075,300.7032,0,U,52368,999,23507,.77351924E-4,.943E-5,0
STARLINK-3841,2022-045AQ,2026-07-14T15:04:10.846848,15.08831515,.00011557,53.1611,339.0169,97.2325,262.8798,0,U,52369,999,23508,.4065886E-5,-.223E-5,0
STARLINK-3827,2022-045AR,2026-07-14T14:54:57.617280,15.08830795,.00013322,53.1609,339.0580,111.7057,248.4077,0,U,52370,999,23508,.1637927E-4,-.27E-6,0
STARLINK-3798,2022-045AS,2026-07-14T14:00:01.999872,15.29375742,.00011497,53.1589,337.8731,75.8348,74.1954,0,U,52371,999,574,-.84203624E-3,-.24588E-3,0
STARLINK-3796,2022-045AT,2026-07-14T14:00:01.999872,15.34620982,.00004499,53.1604,337.5483,60.2193,297.4739,0,U,52372,999,584,.12000884E-2,.40677E-3,0
STARLINK-3550,2022-045AU,2026-07-14T14:39:14.469696,15.34891118,.00005704,53.1624,335.0130,81.6628,278.4440,0,U,52373,999,23514,-.18246023E-2,-.62479E-3,0
STARLINK-3762,2022-045AV,2026-07-14T14:00:01.999872,15.34997652,.00006816,53.1611,337.0410,116.8758,180.1708,0,U,52374,999,584,.61100152E-3,.2072E-3,0
STARLINK-3785,2022-045AW,2026-07-14T14:00:01.999872,15.32705009,.00012855,53.1601,337.4898,20.2486,28.7313,0,U,52375,999,584,.30761566E-3,.9494E-4,0
STARLINK-3805,2022-045AY,2026-07-14T14:48:19.204416,15.08832525,.00011859,53.1611,339.2882,96.2703,263.8423,0,U,52377,999,23507,-.2080217E-5,-.321E-5,0
STARLINK-3806,2022-045AZ,2026-07-14T14:05:53.574432,15.08833234,.00011753,53.1618,339.2003,93.9175,266.1951,0,U,52378,999,23508,.7107498E-5,-.175E-5,0
STARLINK-3800,2022-045BA,2026-07-14T14:00:01.999872,15.21378365,.00000347,53.1614,338.6792,84.8842,151.0971,0,U,52379,999,564,.58756384E-3,.13038E-3,0
STARLINK-3793,2022-045BB,2026-07-14T14:00:01.999872,15.34478539,.00010242,53.1608,327.0387,75.0637,53.0134,0,U,52380,999,585,.58583596E-3,.19518E-3,0
STARLINK-3799,2022-045BD,2026-07-14T14:29:15.246816,15.38780628,.0001612,53.2143,327.7414,64.0829,296.0342,0,U,52382,999,23525,.12549551E-2,.4875E-3,0
STARLINK-3811,2022-045BE,2026-07-14T13:59:10.719744,15.33549344,.00009794,53.1609,326.9372,69.8672,290.2435,0,U,52383,999,23525,.39144527E-4,.915E-5,0
BRO-6,2022-047AE,2026-07-14T14:42:04.840992,15.52536424,.0002823,97.3395,287.2317,313.6378,46.4640,0,U,52422,999,23540,.44342503E-3,.27151E-3,0
JILIN-1 KUANFU 01C,2022-048A,2026-07-14T14:28:41.116224,15.09598172,.00172839,97.5251,272.2770,222.3265,137.6632,0,U,52443,999,23133,.87658986E-4,.1349E-4,0
JILIN-1 GAOFEN 3D27,2022-048B,2026-07-14T14:19:21.347904,15.82913815,.00051774,97.5728,312.1769,245.2153,114.8577,0,U,52444,999,23380,.60135802E-3,.128735E-2,0
JILIN-1 GAOFEN 3D28,2022-048C,2026-07-14T14:12:53.411040,15.87892261,.00049748,97.5664,312.4689,242.7262,117.3503,0,U,52445,999,23386,.61599545E-3,.168087E-2,0
JILIN-1 GAOFEN 3D29,2022-048D,2026-07-14T13:57:45.754848,15.83127242,.00044556,97.5733,312.5259,228.7673,131.3212,0,U,52446,999,23382,.60803098E-3,.13148E-2,0
JILIN-1 GAOFEN 3D31,2022-048F,2026-07-14T14:44:37.956480,15.93689306,.00055414,97.5697,313.9007,241.5921,118.4795,0,U,52448,999,23393,.69562496E-3,.249639E-2,.2594669E-4
STARLINK-3909,2022-049B,2026-07-14T08:58:30.913824,15.08829825,.00008382,53.1591,220.0241,82.1282,277.9804,0,U,52452,999,23123,.2137624E-4,.52E-6,0
STARLINK-3872,2022-049C,2026-07-14T11:42:48.803040,15.08835552,.00011299,53.1583,219.6391,78.3594,281.7524,0,U,52453,999,23125,-.33052905E-4,-.814E-5,0
STARLINK-3888,2022-049D,2026-07-14T13:23:30.723936,15.08825770,.00009374,53.1589,219.3240,60.5852,299.5233,0,U,52454,999,23126,.29915785E-4,.188E-5,0
STARLINK-3890,2022-049E,2026-07-14T08:28:07.126464,15.08834308,.00010969,53.1590,220.2470,78.4450,281.6664,0,U,52455,999,23123,.12396387E-4,-.91E-6,0
STARLINK-3896,2022-049F,2026-07-14T13:08:58.355232,15.08837286,.00010969,53.1591,219.3701,74.4001,285.7111,0,U,52456,999,23126,.2549889E-4,.118E-5,0
STARLINK-3899,2022-049G,2026-07-14T09:51:31.506912,15.08833521,.00011301,53.1589,219.9768,77.1317,282.9801,0,U,52457,999,23124,.25524134E-4,.118E-5,0
STARLINK-3898,2022-049H,2026-07-14T08:12:13.239360,15.08842493,.00008409,53.1592,220.2958,80.6575,279.4512,0,U,52458,999,23123,.2323434E-4,.82E-6,0
